{
  "norad_id": 53175,
  "name": "STARLINK-4292",
  "history": [
    {
      "epoch": "2026-03-28T16:48:24.141024Z",
      "apogee_km": 540.6497291332989,
      "perigee_km": 538.803628032033,
      "latitude_deg": -3.72433898549719e-08,
      "longitude_deg": 10.563749641234446,
      "height_km": 540.6054115129359,
      "semi_major_axis_km": 6917.863678582666,
      "eccentricity": 0.00013343,
      "inclination_deg": 53.2172,
      "raan_deg": 88.7813,
      "arg_perigee_deg": 88.9453,
      "mean_anomaly_deg": 271.1692,
      "mean_motion_rev_day": 15.08845467
    },
    {
      "epoch": "2026-03-29T03:56:05.305056Z",
      "apogee_km": 540.5757443366538,
      "perigee_km": 538.8421321445294,
      "latitude_deg": 2.4484743420714035e-05,
      "longitude_deg": -158.89716383274381,
      "height_km": 540.6172352979739,
      "semi_major_axis_km": 6917.845938240591,
      "eccentricity": 0.0001253,
      "inclination_deg": 53.2165,
      "raan_deg": 86.6989,
      "arg_perigee_deg": 90.8288,
      "mean_anomaly_deg": 269.2848,
      "mean_motion_rev_day": 15.08851271
    },
    {
      "epoch": "2026-03-30T05:22:17.170176Z",
      "apogee_km": 541.1126453817178,
      "perigee_km": 538.4247622995472,
      "latitude_deg": -2.546410555465049e-05,
      "longitude_deg": 173.74911647063476,
      "height_km": 540.7490043531195,
      "semi_major_axis_km": 6917.905703840633,
      "eccentricity": 0.00019427,
      "inclination_deg": 53.2173,
      "raan_deg": 81.9393,
      "arg_perigee_deg": 93.6446,
      "mean_anomaly_deg": 266.4768,
      "mean_motion_rev_day": 15.08831718
    },
    {
      "epoch": "2026-03-30T08:33:03.715200Z",
      "apogee_km": 540.8726084648324,
      "perigee_km": 538.6930486436486,
      "latitude_deg": -4.829464991764994e-05,
      "longitude_deg": 125.32828068793943,
      "height_km": 540.7044017431953,
      "semi_major_axis_km": 6917.91982855424,
      "eccentricity": 0.00015753,
      "inclination_deg": 53.2176,
      "raan_deg": 81.343,
      "arg_perigee_deg": 91.3747,
      "mean_anomaly_deg": 268.7425,
      "mean_motion_rev_day": 15.08827097
    },
    {
      "epoch": "2026-03-30T16:29:59.269920Z",
      "apogee_km": 540.8340086125172,
      "perigee_km": 538.7073054405937,
      "latitude_deg": 6.027449258091869e-05,
      "longitude_deg": 4.285039608630501,
      "height_km": 540.6669585002536,
      "semi_major_axis_km": 6917.907657026555,
      "eccentricity": 0.00015371,
      "inclination_deg": 53.2163,
      "raan_deg": 79.8576,
      "arg_perigee_deg": 90.0524,
      "mean_anomaly_deg": 270.0645,
      "mean_motion_rev_day": 15.08831079
    },
    {
      "epoch": "2026-03-31T16:20:46.262400Z",
      "apogee_km": 540.8284418856001,
      "perigee_km": 538.6603778517474,
      "latitude_deg": -4.203289223218568e-05,
      "longitude_deg": 1.1485265493436778,
      "height_km": 540.6886130127695,
      "semi_major_axis_km": 6917.8814098686735,
      "eccentricity": 0.0001567,
      "inclination_deg": 53.217,
      "raan_deg": 75.3963,
      "arg_perigee_deg": 92.5813,
      "mean_anomaly_deg": 267.5358,
      "mean_motion_rev_day": 15.08839666
    },
    {
      "epoch": "2026-04-01T16:11:33.807840Z",
      "apogee_km": 540.7730172625434,
      "perigee_km": 538.770974399149,
      "latitude_deg": 3.33306045656919e-05,
      "longitude_deg": -1.9900647512974996,
      "height_km": 540.7350021775064,
      "semi_major_axis_km": 6917.908995830846,
      "eccentricity": 0.0001447,
      "inclination_deg": 53.2177,
      "raan_deg": 70.9351,
      "arg_perigee_deg": 93.8604,
      "mean_anomaly_deg": 266.2554,
      "mean_motion_rev_day": 15.08830641
    },
    {
      "epoch": "2026-04-02T04:54:38.801664Z",
      "apogee_km": 540.7557091935269,
      "perigee_km": 538.7549163788226,
      "latitude_deg": 1.6474672679565298e-05,
      "longitude_deg": 164.33840374872258,
      "height_km": 540.67441500131,
      "semi_major_axis_km": 6917.892312786174,
      "eccentricity": 0.00014461,
      "inclination_deg": 53.217,
      "raan_deg": 68.5567,
      "arg_perigee_deg": 91.3496,
      "mean_anomaly_deg": 268.7662,
      "mean_motion_rev_day": 15.08836099
    },
    {
      "epoch": "2026-04-02T22:23:52.304928Z",
      "apogee_km": 540.719731163028,
      "perigee_km": 538.7167353587902,
      "latitude_deg": -1.9367036954040466e-06,
      "longitude_deg": -101.95694206269137,
      "height_km": 540.6212109765091,
      "semi_major_axis_km": 6917.855233260909,
      "eccentricity": 0.00014477,
      "inclination_deg": 53.2172,
      "raan_deg": 65.2858,
      "arg_perigee_deg": 90.424,
      "mean_anomaly_deg": 269.6918,
      "mean_motion_rev_day": 15.0884823
    },
    {
      "epoch": "2026-04-03T04:45:24.279552Z",
      "apogee_km": 540.6992907948288,
      "perigee_km": 538.6972692647869,
      "latitude_deg": 4.617249902184302e-06,
      "longitude_deg": 161.20948524451958,
      "height_km": 540.5934081195504,
      "semi_major_axis_km": 6917.835280029807,
      "eccentricity": 0.0001447,
      "inclination_deg": 53.2167,
      "raan_deg": 64.0966,
      "arg_perigee_deg": 89.9778,
      "mean_anomaly_deg": 270.138,
      "mean_motion_rev_day": 15.08854758
    },
    {
      "epoch": "2026-04-04T14:08:33.932832Z",
      "apogee_km": 540.9887737250074,
      "perigee_km": 538.6422042407439,
      "latitude_deg": -5.2426990278468435e-05,
      "longitude_deg": 12.804705304208552,
      "height_km": 540.9121040133825,
      "semi_major_axis_km": 6917.952488982875,
      "eccentricity": 0.0001696,
      "inclination_deg": 53.2182,
      "raan_deg": 57.8532,
      "arg_perigee_deg": 99.8774,
      "mean_anomaly_deg": 260.2409,
      "mean_motion_rev_day": 15.08816412
    },
    {
      "epoch": "2026-04-05T13:59:17.853792Z",
      "apogee_km": 540.892233787933,
      "perigee_km": 538.4474808445575,
      "latitude_deg": 2.1001061672199947e-05,
      "longitude_deg": 9.682053197031834,
      "height_km": 540.7727158592338,
      "semi_major_axis_km": 6917.806857316245,
      "eccentricity": 0.0001767,
      "inclination_deg": 53.2176,
      "raan_deg": 53.3928,
      "arg_perigee_deg": 99.7813,
      "mean_anomaly_deg": 260.3379,
      "mean_motion_rev_day": 15.08864057
    }
  ]
}